AFOTEC-1 (FALCON ODE)   
1 44225U 19026A   20209.84493258  .00000667  00000-0  37619-4 0  9990
2 44225  40.0190 124.0909 0006871 327.5699  32.4678 15.20865205 68447
SPARC-1                 
1 44226U 19026B   20210.13796512  .00001146  00000-0  56512-4 0  9990
2 44226  40.0189 117.4191 0010959 334.5771  25.4490 15.22303682 68549
ELECTRON KICK STAGE R/B 
1 44227U 19026C   20209.88546084  .00000971  00000-0  49575-4 0  9994
2 44227  40.0243 120.1190 0009344 335.0762  24.9587 15.21952855 68499
HARBINGER (ICEYE-X3)    
1 44229U 19026E   20209.83736529  .00000658  00000-0  36997-4 0  9992
2 44229  40.0189 123.1299 0007847 323.0567  36.9693 15.21090880 68457
